{
  "type": "FeatureCollection",
  "name": "西文庙坪历史文化街区",
  "metadata": {
    "source": "H:\\26.5长沙历史步道专项规划\\ArcGISPro历史步道\\历史步道\\范围.gdb",
    "generatedAt": "2026-06-15T06:03:30.631044+00:00",
    "layers": [
      {
        "tableName": "西文庙坪",
        "identifier": "西文庙坪",
        "geometryType": "MultiPolygon",
        "srsId": 4326,
        "gpkgFileName": "guiji-planning-scopes.geojson",
        "source": "H:\\26.5长沙历史步道专项规划\\ArcGISPro历史步道\\历史步道\\范围.gdb",
        "category": "长沙供地云规划范围",
        "format": "ArcGIS FileGDB",
        "defaultVisible": true,
        "styleColor": "#0f766e"
      }
    ]
  },
  "features": [
    {
      "type": "Feature",
      "id": "guiji:西文庙坪:geometry",
      "properties": {
        "name": "西文庙坪",
        "名称": "西文庙坪",
        "来源文件": "guiji-planning-scopes.geojson",
        "来源图层": "西文庙坪",
        "数据来源": "H:\\26.5长沙历史步道专项规划\\ArcGISPro历史步道\\历史步道\\范围.gdb",
        "GIS分类": "长沙供地云规划范围",
        "坐标系统": "EPSG:4326",
        "几何类型": "MultiPolygon",
        "scopeKind": "实际范围边界",
        "wktField": "geometry",
        "source": "H:\\26.5长沙历史步道专项规划\\ArcGISPro历史步道\\历史步道\\范围.gdb"
      },
      "geometry": {
        "type": "MultiPolygon",
        "coordinates": [
          [
            [
              [
                112.98444153824661,
                28.20142168903328,
                99.0
              ],
              [
                112.98398084713462,
                28.17585334963705,
                99.0
              ],
              [
                112.95392205261305,
                28.176394949790573,
                99.0
              ],
              [
                112.95438274282675,
                28.201963288712644,
                99.0
              ],
              [
                112.98444153824661,
                28.20142168903328,
                99.0
              ]
            ],
            [
              [
                112.97182840653001,
                28.180589415119005,
                99.0
              ],
              [
                112.97211403395943,
                28.180791611636977,
                99.0
              ],
              [
                112.97262164407871,
                28.181151168652207,
                99.0
              ],
              [
                112.97293537530183,
                28.181373248452523,
                99.0
              ],
              [
                112.97331724014595,
                28.18163524920901,
                99.0
              ],
              [
                112.97367564099484,
                28.181923159334442,
                99.0
              ],
              [
                112.97416533691073,
                28.18232901576921,
                99.0
              ],
              [
                112.97458907492518,
                28.182721808070323,
                99.0
              ],
              [
                112.97506804405825,
                28.183139309047437,
                99.0
              ],
              [
                112.97551925255412,
                28.18353411669665,
                99.0
              ],
              [
                112.9757238860809,
                28.183750619590366,
                99.0
              ],
              [
                112.97593873614738,
                28.184006476435737,
                99.0
              ],
              [
                112.97620311662372,
                28.18439070950878,
                99.0
              ],
              [
                112.97650627287929,
                28.184944145010586,
                99.0
              ],
              [
                112.97670720175383,
                28.185370678837803,
                99.0
              ],
              [
                112.97711871908717,
                28.186200060517592,
                99.0
              ],
              [
                112.97717100462998,
                28.186304455679302,
                99.0
              ],
              [
                112.97721918307528,
                28.186402819681835,
                99.0
              ],
              [
                112.97727432076913,
                28.186501725177102,
                99.0
              ],
              [
                112.97732178864705,
                28.186614455983516,
                99.0
              ],
              [
                112.97669662678629,
                28.18667495565836,
                99.0
              ],
              [
                112.9758506096214,
                28.186678480694315,
                99.0
              ],
              [
                112.97497639164479,
                28.186713731047433,
                99.0
              ],
              [
                112.97457453389569,
                28.186752507214194,
                99.0
              ],
              [
                112.97459215884156,
                28.187189616011015,
                99.0
              ],
              [
                112.97459215884156,
                28.187975706618847,
                99.0
              ],
              [
                112.97462035965326,
                28.188426915870984,
                99.0
              ],
              [
                112.97468733624423,
                28.189614864943813,
                99.0
              ],
              [
                112.97475078694767,
                28.190711162088355,
                99.0
              ],
              [
                112.97478956272691,
                28.191359775512417,
                99.0
              ],
              [
                112.97485710345988,
                28.191921107464452,
                99.0
              ],
              [
                112.97499697833615,
                28.193040106270317,
                99.0
              ],
              [
                112.97513883848917,
                28.19414412488228,
                99.0
              ],
              [
                112.97522980189487,
                28.19475632494847,
                99.0
              ],
              [
                112.97490637515489,
                28.194769320358056,
                99.0
              ],
              [
                112.9740501612132,
                28.194783759084405,
                99.0
              ],
              [
                112.97301779483081,
                28.194799641126938,
                99.0
              ],
              [
                112.97224965621115,
                28.19485017704218,
                99.0
              ],
              [
                112.97150028788933,
                28.194900712141784,
                99.0
              ],
              [
                112.97083231771205,
                28.194950977239014,
                99.0
              ],
              [
                112.97004721440825,
                28.195014145852273,
                99.0
              ],
              [
                112.96953057981362,
                28.19507280318003,
                99.0
              ],
              [
                112.96882894976262,
                28.19514274096468,
                99.0
              ],
              [
                112.96824012116188,
                28.195201398221858,
                99.0
              ],
              [
                112.96719557272593,
                28.195273591542243,
                99.0
              ],
              [
                112.96621419292244,
                28.195336760756568,
                99.0
              ],
              [
                112.96501623199886,
                28.195415722419895,
                99.0
              ],
              [
                112.96408899725083,
                28.19546535548081,
                99.0
              ],
              [
                112.96322267636386,
                28.195510476497226,
                99.0
              ],
              [
                112.96322944427124,
                28.195120179985345,
                99.0
              ],
              [
                112.96328584499634,
                28.194553912570633,
                99.0
              ],
              [
                112.9633941351072,
                28.19384551492114,
                99.0
              ],
              [
                112.96353400998345,
                28.193010777844414,
                99.0
              ],
              [
                112.96367162919005,
                28.19195720405094,
                99.0
              ],
              [
                112.9637641269182,
                28.191433801957807,
                99.0
              ],
              [
                112.96379345601392,
                28.19091491110099,
                99.0
              ],
              [
                112.9638115040663,
                28.19017492815616,
                99.0
              ],
              [
                112.96378894377625,
                28.18944622513803,
                99.0
              ],
              [
                112.963646812332,
                28.18832271439124,
                99.0
              ],
              [
                112.96347760925835,
                28.18733061905496,
                99.0
              ],
              [
                112.96325552955044,
                28.185881814072335,
                99.0
              ],
              [
                112.96312862724518,
                28.184450635592576,
                99.0
              ],
              [
                112.96296876036229,
                28.18284538360748,
                99.0
              ],
              [
                112.96329030782667,
                28.18282090225544,
                99.0
              ],
              [
                112.96384193000496,
                28.18276379966609,
                99.0
              ],
              [
                112.96448597175802,
                28.182697129527675,
                99.0
              ],
              [
                112.96573724499873,
                28.182490918927908,
                99.0
              ],
              [
                112.96622005802293,
                28.182460334951458,
                99.0
              ],
              [
                112.96713604855857,
                28.18241397160603,
                99.0
              ],
              [
                112.96820367291757,
                28.182336493709922,
                99.0
              ],
              [
                112.96910058233826,
                28.182291845391887,
                99.0
              ],
              [
                112.96946423833158,
                28.182266621186255,
                99.0
              ],
              [
                112.96981818084173,
                28.182245198501917,
                99.0
              ],
              [
                112.97002366686971,
                28.182120563606773,
                99.0
              ],
              [
                112.9703655989045,
                28.181852657833428,
                99.0
              ],
              [
                112.97092255977057,
                28.181440224269263,
                99.0
              ],
              [
                112.97115873943518,
                28.181246345539698,
                99.0
              ],
              [
                112.97182840653001,
                28.180589415119005,
                99.0
              ]
            ]
          ]
        ]
      }
    }
  ]
}
