{
  "type": "FeatureCollection",
  "name": "长沙供地云规划研究范围",
  "metadata": {
    "source": "H:\\26.5长沙历史步道专项规划\\ArcGISPro历史步道\\历史步道\\范围.gdb",
    "generatedAt": "2026-06-15T06:03:30.631044+00:00",
    "layers": [
      {
        "tableName": "大图框",
        "identifier": "大图框",
        "geometryType": "MultiPolygon",
        "srsId": 4326,
        "gpkgFileName": "guiji-planning-scopes.geojson",
        "source": "H:\\26.5长沙历史步道专项规划\\ArcGISPro历史步道\\历史步道\\范围.gdb",
        "category": "长沙供地云规划范围",
        "format": "ArcGIS FileGDB",
        "defaultVisible": false,
        "styleColor": "#64748b"
      },
      {
        "tableName": "西文庙坪",
        "identifier": "西文庙坪",
        "geometryType": "MultiPolygon",
        "srsId": 4326,
        "gpkgFileName": "guiji-planning-scopes.geojson",
        "source": "H:\\26.5长沙历史步道专项规划\\ArcGISPro历史步道\\历史步道\\范围.gdb",
        "category": "长沙供地云规划范围",
        "format": "ArcGIS FileGDB",
        "defaultVisible": true,
        "styleColor": "#0f766e"
      }
    ]
  },
  "features": [
    {
      "type": "Feature",
      "id": "guiji:大图框:geometry",
      "properties": {
        "name": "大图框",
        "名称": "大图框",
        "来源文件": "guiji-planning-scopes.geojson",
        "来源图层": "大图框",
        "数据来源": "H:\\26.5长沙历史步道专项规划\\ArcGISPro历史步道\\历史步道\\范围.gdb",
        "GIS分类": "长沙供地云规划范围",
        "坐标系统": "EPSG:4326",
        "几何类型": "MultiPolygon",
        "scopeKind": "实际范围边界",
        "wktField": "geometry",
        "source": "H:\\26.5长沙历史步道专项规划\\ArcGISPro历史步道\\历史步道\\范围.gdb"
      },
      "geometry": {
        "type": "MultiPolygon",
        "coordinates": [
          [
            [
              [
                112.94411653704502,
                28.24311627984999,
                0.0
              ],
              [
                113.00561854762027,
                28.24311627984999,
                0.0
              ],
              [
                113.00561854762027,
                28.16671925231415,
                0.0
              ],
              [
                112.94411653704502,
                28.16671925231415,
                0.0
              ],
              [
                112.94411653704502,
                28.24311627984999,
                0.0
              ]
            ],
            [
              [
                112.96238195746251,
                28.17696415853562,
                0.0
              ],
              [
                112.96290048480742,
                28.17698803783198,
                0.0
              ],
              [
                112.96401600104915,
                28.17700168314179,
                0.0
              ],
              [
                112.9650769356542,
                28.177182485708027,
                0.0
              ],
              [
                112.96566027914183,
                28.177281415568586,
                0.0
              ],
              [
                112.96698730012395,
                28.177472451599126,
                0.0
              ],
              [
                112.96784355269321,
                28.177690779317693,
                0.0
              ],
              [
                112.96839639298702,
                28.177963194817693,
                0.0
              ],
              [
                112.9695707156422,
                28.17891264756024,
                0.0
              ],
              [
                112.97195567265294,
                28.180694618675474,
                0.0
              ],
              [
                112.97327790920785,
                28.18160309479962,
                0.0
              ],
              [
                112.97375907202684,
                28.181998266815906,
                0.0
              ],
              [
                112.97435428854756,
                28.18251756676916,
                0.0
              ],
              [
                112.97540068391976,
                28.18343035227897,
                0.0
              ],
              [
                112.97587384903778,
                28.183922255869675,
                0.0
              ],
              [
                112.97624394774833,
                28.18447974703739,
                0.0
              ],
              [
                112.9769604287476,
                28.185879622389464,
                0.0
              ],
              [
                112.97772170783173,
                28.187402181098722,
                0.0
              ],
              [
                112.97846102759878,
                28.188771020336194,
                0.0
              ],
              [
                112.97957139739223,
                28.189840780678978,
                0.0
              ],
              [
                112.98026603675368,
                28.190381908570092,
                0.0
              ],
              [
                112.98108540359905,
                28.19097100855842,
                0.0
              ],
              [
                112.98151546575312,
                28.191206719377607,
                0.0
              ],
              [
                112.98168239249583,
                28.192375211309837,
                0.0
              ],
              [
                112.98185296100874,
                28.19369711458092,
                0.0
              ],
              [
                112.98193291466227,
                28.194501983863866,
                0.0
              ],
              [
                112.98189560313695,
                28.194965716004855,
                0.0
              ],
              [
                112.9818156485851,
                28.195440109048114,
                0.0
              ],
              [
                112.98168239249583,
                28.195903841077264,
                0.0
              ],
              [
                112.98146918185473,
                28.196431536918816,
                0.0
              ],
              [
                112.98058435926619,
                28.198616942725213,
                0.0
              ],
              [
                112.98004067280509,
                28.199896204429937,
                0.0
              ],
              [
                112.97995005884407,
                28.200226680295792,
                0.0
              ],
              [
                112.97998737036937,
                28.201330043576988,
                0.0
              ],
              [
                112.98010996615116,
                28.203089027904774,
                0.0
              ],
              [
                112.98034449830553,
                28.20542368087716,
                0.0
              ],
              [
                112.98049374530517,
                28.207044078985188,
                0.0
              ],
              [
                112.98063233199731,
                28.20910688875638,
                0.0
              ],
              [
                112.9806941630383,
                28.210757136389372,
                0.0
              ],
              [
                112.98075897828267,
                28.212302484614234,
                0.0
              ],
              [
                112.98082379442538,
                28.21341800072149,
                0.0
              ],
              [
                112.9809159013864,
                28.214639269007915,
                0.0
              ],
              [
                112.98099777384141,
                28.21557057133401,
                0.0
              ],
              [
                112.98107282449014,
                28.216498462595585,
                0.0
              ],
              [
                112.98114787424055,
                28.217446821846032,
                0.0
              ],
              [
                112.98123998120157,
                28.218647622064687,
                0.0
              ],
              [
                112.98136278988406,
                28.220080395813497,
                0.0
              ],
              [
                112.98143101782821,
                28.22117544319747,
                0.0
              ],
              [
                112.98152653569235,
                28.222601394149354,
                0.0
              ],
              [
                112.98161864265337,
                28.22401711003117,
                0.0
              ],
              [
                112.98170733781296,
                28.225269081310074,
                0.0
              ],
              [
                112.98181650198461,
                28.226572222083416,
                0.0
              ],
              [
                112.9818642609167,
                28.227158976793504,
                0.0
              ],
              [
                112.98188813993357,
                28.227861718422076,
                0.0
              ],
              [
                112.98191966091859,
                28.2290846244701,
                0.0
              ],
              [
                112.98193276105036,
                28.23032690657333,
                0.0
              ],
              [
                112.98198734268703,
                28.23079631070681,
                0.0
              ],
              [
                112.98206594078282,
                28.231158733908,
                0.0
              ],
              [
                112.98210305647542,
                28.23142509302049,
                0.0
              ],
              [
                112.98210087267094,
                28.231615038194004,
                0.0
              ],
              [
                112.982052840651,
                28.231722018187092,
                0.0
              ],
              [
                112.98196332712622,
                28.231783150015815,
                0.0
              ],
              [
                112.98141314225236,
                28.231765683443413,
                0.0
              ],
              [
                112.98057476525895,
                28.23175408549214,
                0.0
              ],
              [
                112.97961958302407,
                28.231713149162008,
                0.0
              ],
              [
                112.97919824800302,
                28.231627058796803,
                0.0
              ],
              [
                112.9789101699695,
                28.231527884034588,
                0.0
              ],
              [
                112.97861264615075,
                28.231374400289045,
                0.0
              ],
              [
                112.9776303455741,
                28.23078171380756,
                0.0
              ],
              [
                112.97732573853934,
                28.230599893878153,
                0.0
              ],
              [
                112.97693522291905,
                28.230473641442174,
                0.0
              ],
              [
                112.97660118707557,
                28.23041141901886,
                0.0
              ],
              [
                112.97629007444155,
                28.23038194493514,
                0.0
              ],
              [
                112.97456422033788,
                28.230322997534728,
                0.0
              ],
              [
                112.9735064388195,
                28.230293523426585,
                0.0
              ],
              [
                112.97221608437236,
                28.230266716544023,
                0.0
              ],
              [
                112.9701333754204,
                28.23016726192204,
                0.0
              ],
              [
                112.96837779157244,
                28.23006743126126,
                0.0
              ],
              [
                112.9681139985943,
                28.227003740741864,
                0.0
              ],
              [
                112.96719169649549,
                28.221982043119983,
                0.0
              ],
              [
                112.96656702331828,
                28.217926914002906,
                0.0
              ],
              [
                112.96589138691836,
                28.21518417932923,
                0.0
              ],
              [
                112.96543639741348,
                28.214120624615045,
                0.0
              ],
              [
                112.96460010271488,
                28.21134085830385,
                0.0
              ],
              [
                112.96350088550568,
                28.206972416888856,
                0.0
              ],
              [
                112.96318817656537,
                28.205153022356843,
                0.0
              ],
              [
                112.96224531382632,
                28.201206262987423,
                0.0
              ],
              [
                112.9621079111137,
                28.199382130148777,
                0.0
              ],
              [
                112.96198472334218,
                28.196378234706774,
                0.0
              ],
              [
                112.96197524701424,
                28.194994736704853,
                0.0
              ],
              [
                112.96243693615455,
                28.191123879760283,
                0.0
              ],
              [
                112.9623069077121,
                28.189309129090287,
                0.0
              ],
              [
                112.96209610545425,
                28.186559044303724,
                0.0
              ],
              [
                112.96187584393648,
                28.18394682248472,
                0.0
              ],
              [
                112.96139667897067,
                28.17926337235327,
                0.0
              ],
              [
                112.96088441108664,
                28.17700513564563,
                0.0
              ],
              [
                112.96238195746251,
                28.17696415853562,
                0.0
              ]
            ]
          ]
        ]
      }
    },
    {
      "type": "Feature",
      "id": "guiji:西文庙坪:geometry",
      "properties": {
        "name": "西文庙坪",
        "名称": "西文庙坪",
        "来源文件": "guiji-planning-scopes.geojson",
        "来源图层": "西文庙坪",
        "数据来源": "H:\\26.5长沙历史步道专项规划\\ArcGISPro历史步道\\历史步道\\范围.gdb",
        "GIS分类": "长沙供地云规划范围",
        "坐标系统": "EPSG:4326",
        "几何类型": "MultiPolygon",
        "scopeKind": "实际范围边界",
        "wktField": "geometry",
        "source": "H:\\26.5长沙历史步道专项规划\\ArcGISPro历史步道\\历史步道\\范围.gdb"
      },
      "geometry": {
        "type": "MultiPolygon",
        "coordinates": [
          [
            [
              [
                112.98444153824661,
                28.20142168903328,
                99.0
              ],
              [
                112.98398084713462,
                28.17585334963705,
                99.0
              ],
              [
                112.95392205261305,
                28.176394949790573,
                99.0
              ],
              [
                112.95438274282675,
                28.201963288712644,
                99.0
              ],
              [
                112.98444153824661,
                28.20142168903328,
                99.0
              ]
            ],
            [
              [
                112.97182840653001,
                28.180589415119005,
                99.0
              ],
              [
                112.97211403395943,
                28.180791611636977,
                99.0
              ],
              [
                112.97262164407871,
                28.181151168652207,
                99.0
              ],
              [
                112.97293537530183,
                28.181373248452523,
                99.0
              ],
              [
                112.97331724014595,
                28.18163524920901,
                99.0
              ],
              [
                112.97367564099484,
                28.181923159334442,
                99.0
              ],
              [
                112.97416533691073,
                28.18232901576921,
                99.0
              ],
              [
                112.97458907492518,
                28.182721808070323,
                99.0
              ],
              [
                112.97506804405825,
                28.183139309047437,
                99.0
              ],
              [
                112.97551925255412,
                28.18353411669665,
                99.0
              ],
              [
                112.9757238860809,
                28.183750619590366,
                99.0
              ],
              [
                112.97593873614738,
                28.184006476435737,
                99.0
              ],
              [
                112.97620311662372,
                28.18439070950878,
                99.0
              ],
              [
                112.97650627287929,
                28.184944145010586,
                99.0
              ],
              [
                112.97670720175383,
                28.185370678837803,
                99.0
              ],
              [
                112.97711871908717,
                28.186200060517592,
                99.0
              ],
              [
                112.97717100462998,
                28.186304455679302,
                99.0
              ],
              [
                112.97721918307528,
                28.186402819681835,
                99.0
              ],
              [
                112.97727432076913,
                28.186501725177102,
                99.0
              ],
              [
                112.97732178864705,
                28.186614455983516,
                99.0
              ],
              [
                112.97669662678629,
                28.18667495565836,
                99.0
              ],
              [
                112.9758506096214,
                28.186678480694315,
                99.0
              ],
              [
                112.97497639164479,
                28.186713731047433,
                99.0
              ],
              [
                112.97457453389569,
                28.186752507214194,
                99.0
              ],
              [
                112.97459215884156,
                28.187189616011015,
                99.0
              ],
              [
                112.97459215884156,
                28.187975706618847,
                99.0
              ],
              [
                112.97462035965326,
                28.188426915870984,
                99.0
              ],
              [
                112.97468733624423,
                28.189614864943813,
                99.0
              ],
              [
                112.97475078694767,
                28.190711162088355,
                99.0
              ],
              [
                112.97478956272691,
                28.191359775512417,
                99.0
              ],
              [
                112.97485710345988,
                28.191921107464452,
                99.0
              ],
              [
                112.97499697833615,
                28.193040106270317,
                99.0
              ],
              [
                112.97513883848917,
                28.19414412488228,
                99.0
              ],
              [
                112.97522980189487,
                28.19475632494847,
                99.0
              ],
              [
                112.97490637515489,
                28.194769320358056,
                99.0
              ],
              [
                112.9740501612132,
                28.194783759084405,
                99.0
              ],
              [
                112.97301779483081,
                28.194799641126938,
                99.0
              ],
              [
                112.97224965621115,
                28.19485017704218,
                99.0
              ],
              [
                112.97150028788933,
                28.194900712141784,
                99.0
              ],
              [
                112.97083231771205,
                28.194950977239014,
                99.0
              ],
              [
                112.97004721440825,
                28.195014145852273,
                99.0
              ],
              [
                112.96953057981362,
                28.19507280318003,
                99.0
              ],
              [
                112.96882894976262,
                28.19514274096468,
                99.0
              ],
              [
                112.96824012116188,
                28.195201398221858,
                99.0
              ],
              [
                112.96719557272593,
                28.195273591542243,
                99.0
              ],
              [
                112.96621419292244,
                28.195336760756568,
                99.0
              ],
              [
                112.96501623199886,
                28.195415722419895,
                99.0
              ],
              [
                112.96408899725083,
                28.19546535548081,
                99.0
              ],
              [
                112.96322267636386,
                28.195510476497226,
                99.0
              ],
              [
                112.96322944427124,
                28.195120179985345,
                99.0
              ],
              [
                112.96328584499634,
                28.194553912570633,
                99.0
              ],
              [
                112.9633941351072,
                28.19384551492114,
                99.0
              ],
              [
                112.96353400998345,
                28.193010777844414,
                99.0
              ],
              [
                112.96367162919005,
                28.19195720405094,
                99.0
              ],
              [
                112.9637641269182,
                28.191433801957807,
                99.0
              ],
              [
                112.96379345601392,
                28.19091491110099,
                99.0
              ],
              [
                112.9638115040663,
                28.19017492815616,
                99.0
              ],
              [
                112.96378894377625,
                28.18944622513803,
                99.0
              ],
              [
                112.963646812332,
                28.18832271439124,
                99.0
              ],
              [
                112.96347760925835,
                28.18733061905496,
                99.0
              ],
              [
                112.96325552955044,
                28.185881814072335,
                99.0
              ],
              [
                112.96312862724518,
                28.184450635592576,
                99.0
              ],
              [
                112.96296876036229,
                28.18284538360748,
                99.0
              ],
              [
                112.96329030782667,
                28.18282090225544,
                99.0
              ],
              [
                112.96384193000496,
                28.18276379966609,
                99.0
              ],
              [
                112.96448597175802,
                28.182697129527675,
                99.0
              ],
              [
                112.96573724499873,
                28.182490918927908,
                99.0
              ],
              [
                112.96622005802293,
                28.182460334951458,
                99.0
              ],
              [
                112.96713604855857,
                28.18241397160603,
                99.0
              ],
              [
                112.96820367291757,
                28.182336493709922,
                99.0
              ],
              [
                112.96910058233826,
                28.182291845391887,
                99.0
              ],
              [
                112.96946423833158,
                28.182266621186255,
                99.0
              ],
              [
                112.96981818084173,
                28.182245198501917,
                99.0
              ],
              [
                112.97002366686971,
                28.182120563606773,
                99.0
              ],
              [
                112.9703655989045,
                28.181852657833428,
                99.0
              ],
              [
                112.97092255977057,
                28.181440224269263,
                99.0
              ],
              [
                112.97115873943518,
                28.181246345539698,
                99.0
              ],
              [
                112.97182840653001,
                28.180589415119005,
                99.0
              ]
            ]
          ]
        ]
      }
    }
  ]
}
